{
  "type": "FeatureCollection",
  "features": [
    {
      "type": "Feature",
      "properties": {
        "norad_id": 32099,
        "name": "FENGYUN 1C DEB",
        "group": "fengyun-1c-debris",
        "lat": -21.63561988160365,
        "lon": -29.866573397082536,
        "alt_km": 913.8419922008634,
        "timestamp": "2025-12-21T22:41:41.745326+00:00",
        "meta_object_name": "FENGYUN 1C DEB",
        "meta_object_id": "1999-025CQR",
        "meta_epoch": "2025-12-13T04:24:17.454240",
        "meta_mean_motion": 13.91775545,
        "meta_eccentricity": 0.03428827,
        "meta_inclination": 98.2819,
        "meta_ra_of_asc_node": 318.9761,
        "meta_arg_of_pericenter": 273.8166,
        "meta_mean_anomaly": 102.561,
        "meta_ephemeris_type": 0,
        "meta_classification_type": "U",
        "meta_norad_cat_id": 32099,
        "meta_element_set_no": 999,
        "meta_rev_at_epoch": 64694,
        "meta_bstar": 0.0015539286,
        "meta_mean_motion_dot": 3.154e-05,
        "meta_mean_motion_ddot": 0,
        "tle_line1": "1 32099U 99025CQR 25347.18353535  .00003154  00000+0  15539-2 0  9999",
        "tle_line2": "2 32099  98.2819 318.9761 0342882 273.8166 102.5610 13.91775545646948"
      },
      "geometry": {
        "type": "Point",
        "coordinates": [
          -29.866573397082536,
          -21.63561988160365
        ]
      }
    },
    {
      "type": "Feature",
      "properties": {
        "norad_id": 32101,
        "name": "FENGYUN 1C DEB",
        "group": "fengyun-1c-debris",
        "lat": 26.244658213124367,
        "lon": -109.58283195388488,
        "alt_km": 973.6285474288179,
        "timestamp": "2025-12-21T22:41:41.745336+00:00",
        "meta_object_name": "FENGYUN 1C DEB",
        "meta_object_id": "1999-025CQT",
        "meta_epoch": "2025-12-20T00:18:35.789472",
        "meta_mean_motion": 14.01690223,
        "meta_eccentricity": 0.01201229,
        "meta_inclination": 99.0336,
        "meta_ra_of_asc_node": 253.0019,
        "meta_arg_of_pericenter": 218.4634,
        "meta_mean_anomaly": 140.7924,
        "meta_ephemeris_type": 0,
        "meta_classification_type": "U",
        "meta_norad_cat_id": 32101,
        "meta_element_set_no": 999,
        "meta_rev_at_epoch": 93284,
        "meta_bstar": 0.0014180286,
        "meta_mean_motion_dot": 2.246e-05,
        "meta_mean_motion_ddot": 0,
        "tle_line1": "1 32101U 99025CQT 25354.01291423  .00002246  00000+0  14180-2 0  9992",
        "tle_line2": "2 32101  99.0336 253.0019 0120122 218.4634 140.7924 14.01690223932846"
      },
      "geometry": {
        "type": "Point",
        "coordinates": [
          -109.58283195388488,
          26.244658213124367
        ]
      }
    },
    {
      "type": "Feature",
      "properties": {
        "norad_id": 32105,
        "name": "FENGYUN 1C DEB",
        "group": "fengyun-1c-debris",
        "lat": 66.05735583872853,
        "lon": -156.91124810656675,
        "alt_km": 920.3013647416619,
        "timestamp": "2025-12-21T22:41:41.745346+00:00",
        "meta_object_name": "FENGYUN 1C DEB",
        "meta_object_id": "1999-025CQX",
        "meta_epoch": "2025-12-17T05:19:37.418304",
        "meta_mean_motion": 13.40288111,
        "meta_eccentricity": 0.03945751,
        "meta_inclination": 103.4645,
        "meta_ra_of_asc_node": 344.1703,
        "meta_arg_of_pericenter": 65.7841,
        "meta_mean_anomaly": 298.3981,
        "meta_ephemeris_type": 0,
        "meta_classification_type": "U",
        "meta_norad_cat_id": 32105,
        "meta_element_set_no": 999,
        "meta_rev_at_epoch": 59771,
        "meta_bstar": 0.0022256108,
        "meta_mean_motion_dot": 1.853e-05,
        "meta_mean_motion_ddot": 0,
        "tle_line1": "1 32105U 99025CQX 25351.22196086  .00001853  00000+0  22256-2 0  9991",
        "tle_line2": "2 32105 103.4645 344.1703 0394575  65.7841 298.3981 13.40288111597710"
      },
      "geometry": {
        "type": "Point",
        "coordinates": [
          -156.91124810656675,
          66.05735583872853
        ]
      }
    },
    {
      "type": "Feature",
      "properties": {
        "norad_id": 32106,
        "name": "FENGYUN 1C DEB",
        "group": "fengyun-1c-debris",
        "lat": 30.244656055888488,
        "lon": -36.632002697253974,
        "alt_km": 722.1903522056436,
        "timestamp": "2025-12-21T22:41:41.745359+00:00",
        "meta_object_name": "FENGYUN 1C DEB",
        "meta_object_id": "1999-025CQY",
        "meta_epoch": "2025-12-20T04:29:25.586880",
        "meta_mean_motion": 14.27133511,
        "meta_eccentricity": 0.01104398,
        "meta_inclination": 101.4619,
        "meta_ra_of_asc_node": 327.8635,
        "meta_arg_of_pericenter": 22.7964,
        "meta_mean_anomaly": 337.8056,
        "meta_ephemeris_type": 0,
        "meta_classification_type": "U",
        "meta_norad_cat_id": 32106,
        "meta_element_set_no": 999,
        "meta_rev_at_epoch": 69498,
        "meta_bstar": 0.0025604023,
        "meta_mean_motion_dot": 6.603e-05,
        "meta_mean_motion_ddot": 0,
        "tle_line1": "1 32106U 99025CQY 25354.18710170  .00006603  00000+0  25604-2 0  9994",
        "tle_line2": "2 32106 101.4619 327.8635 0110439  22.7964 337.8056 14.27133511694984"
      },
      "geometry": {
        "type": "Point",
        "coordinates": [
          -36.632002697253974,
          30.244656055888488
        ]
      }
    },
    {
      "type": "Feature",
      "properties": {
        "norad_id": 32109,
        "name": "FENGYUN 1C DEB",
        "group": "fengyun-1c-debris",
        "lat": 47.93010493848338,
        "lon": -134.16092262551322,
        "alt_km": 853.9037646258867,
        "timestamp": "2025-12-21T22:41:41.745370+00:00",
        "meta_object_name": "FENGYUN 1C DEB",
        "meta_object_id": "1999-025CRB",
        "meta_epoch": "2025-12-21T10:44:42.753120",
        "meta_mean_motion": 14.33969951,
        "meta_eccentricity": 0.02052087,
        "meta_inclination": 98.3592,
        "meta_ra_of_asc_node": 234.7326,
        "meta_arg_of_pericenter": 286.3201,
        "meta_mean_anomaly": 71.5506,
        "meta_ephemeris_type": 0,
        "meta_classification_type": "U",
        "meta_norad_cat_id": 32109,
        "meta_element_set_no": 999,
        "meta_rev_at_epoch": 65013,
        "meta_bstar": 0.00041973289,
        "meta_mean_motion_dot": 1.432e-05,
        "meta_mean_motion_ddot": 0,
        "tle_line1": "1 32109U 99025CRB 25355.44771705  .00001432  00000+0  41973-3 0  9991",
        "tle_line2": "2 32109  98.3592 234.7326 0205208 286.3201  71.5506 14.33969951650138"
      },
      "geometry": {
        "type": "Point",
        "coordinates": [
          -134.16092262551322,
          47.93010493848338
        ]
      }
    },
    {
      "type": "Feature",
      "properties": {
        "norad_id": 32110,
        "name": "FENGYUN 1C DEB",
        "group": "fengyun-1c-debris",
        "lat": -78.53482339335311,
        "lon": -70.03355137512139,
        "alt_km": 796.9376672998587,
        "timestamp": "2025-12-21T22:41:41.745380+00:00",
        "meta_object_name": "FENGYUN 1C DEB",
        "meta_object_id": "1999-025CRC",
        "meta_epoch": "2025-12-19T23:07:02.652096",
        "meta_mean_motion": 14.28941197,
        "meta_eccentricity": 0.00334801,
        "meta_inclination": 99.5429,
        "meta_ra_of_asc_node": 163.8373,
        "meta_arg_of_pericenter": 345.9783,
        "meta_mean_anomaly": 165.793,
        "meta_ephemeris_type": 0,
        "meta_classification_type": "U",
        "meta_norad_cat_id": 32110,
        "meta_element_set_no": 999,
        "meta_rev_at_epoch": 64491,
        "meta_bstar": 0.00097398852,
        "meta_mean_motion_dot": 2.425e-05,
        "meta_mean_motion_ddot": 0,
        "tle_line1": "1 32110U 99025CRC 25353.96322514  .00002425  00000+0  97399-3 0  9994",
        "tle_line2": "2 32110  99.5429 163.8373 0033480 345.9783 165.7930 14.28941197644916"
      },
      "geometry": {
        "type": "Point",
        "coordinates": [
          -70.03355137512139,
          -78.53482339335311
        ]
      }
    },
    {
      "type": "Feature",
      "properties": {
        "norad_id": 32111,
        "name": "FENGYUN 1C DEB",
        "group": "fengyun-1c-debris",
        "lat": -9.546254340984119,
        "lon": -3.1438435757832814,
        "alt_km": 875.9342683322448,
        "timestamp": "2025-12-21T22:41:41.745392+00:00",
        "meta_object_name": "FENGYUN 1C DEB",
        "meta_object_id": "1999-025CRD",
        "meta_epoch": "2025-12-17T23:15:28.889568",
        "meta_mean_motion": 14.31552028,
        "meta_eccentricity": 0.01199865,
        "meta_inclination": 98.4433,
        "meta_ra_of_asc_node": 351.5571,
        "meta_arg_of_pericenter": 189.336,
        "meta_mean_anomaly": 199.2635,
        "meta_ephemeris_type": 0,
        "meta_classification_type": "U",
        "meta_norad_cat_id": 32111,
        "meta_element_set_no": 999,
        "meta_rev_at_epoch": 96106,
        "meta_bstar": 0.00016396968,
        "meta_mean_motion_dot": 4.28e-06,
        "meta_mean_motion_ddot": 0,
        "tle_line1": "1 32111U 99025CRD 25351.96908437  .00000428  00000+0  16397-3 0  9997",
        "tle_line2": "2 32111  98.4433 351.5571 0119986 189.3360 199.2635 14.31552028961060"
      },
      "geometry": {
        "type": "Point",
        "coordinates": [
          -3.1438435757832814,
          -9.546254340984119
        ]
      }
    }
  ]
}